{
  "type": "FeatureCollection",
  "features": [
    {
      "type": "Feature",
      "properties": {
        "norad_id": 33679,
        "name": "FENGYUN 1C DEB",
        "group": "fengyun-1c-debris",
        "lat": -44.46702192904772,
        "lon": -134.12732481301913,
        "alt_km": 528.3109693335609,
        "timestamp": "2025-12-14T05:42:18.747266+00:00",
        "meta_object_name": "FENGYUN 1C DEB",
        "meta_object_id": "1999-025DFQ",
        "meta_epoch": "2025-12-13T11:06:48.969792",
        "meta_mean_motion": 15.026568,
        "meta_eccentricity": 0.01483147,
        "meta_inclination": 99.3525,
        "meta_ra_of_asc_node": 54.2486,
        "meta_arg_of_pericenter": 297.3985,
        "meta_mean_anomaly": 61.2211,
        "meta_ephemeris_type": 0,
        "meta_classification_type": "U",
        "meta_norad_cat_id": 33679,
        "meta_element_set_no": 999,
        "meta_rev_at_epoch": 94134,
        "meta_bstar": 0.0022719782,
        "meta_mean_motion_dot": 0.00038602,
        "meta_mean_motion_ddot": 0,
        "tle_line1": "1 33679U 99025DFQ 25347.46306678  .00038602  00000+0  22720-2 0  9997",
        "tle_line2": "2 33679  99.3525  54.2486 0148314 297.3985  61.2211 15.02656800941343"
      },
      "geometry": {
        "type": "Point",
        "coordinates": [
          -134.12732481301913,
          -44.46702192904772
        ]
      }
    },
    {
      "type": "Feature",
      "properties": {
        "norad_id": 33682,
        "name": "FENGYUN 1C DEB",
        "group": "fengyun-1c-debris",
        "lat": -15.964277956757291,
        "lon": 37.65306816107851,
        "alt_km": 809.1149111136529,
        "timestamp": "2025-12-14T05:42:18.747277+00:00",
        "meta_object_name": "FENGYUN 1C DEB",
        "meta_object_id": "1999-025DFT",
        "meta_epoch": "2025-12-11T02:02:18.614688",
        "meta_mean_motion": 14.26660896,
        "meta_eccentricity": 0.00288154,
        "meta_inclination": 99.4208,
        "meta_ra_of_asc_node": 31.5402,
        "meta_arg_of_pericenter": 87.4538,
        "meta_mean_anomaly": 272.9938,
        "meta_ephemeris_type": 0,
        "meta_classification_type": "U",
        "meta_norad_cat_id": 33682,
        "meta_element_set_no": 999,
        "meta_rev_at_epoch": 91674,
        "meta_bstar": 0.0020918162,
        "meta_mean_motion_dot": 5.031e-05,
        "meta_mean_motion_ddot": 0,
        "tle_line1": "1 33682U 99025DFT 25345.08493767  .00005031  00000+0  20918-2 0  9990",
        "tle_line2": "2 33682  99.4208  31.5402 0028815  87.4538 272.9938 14.26660896916745"
      },
      "geometry": {
        "type": "Point",
        "coordinates": [
          37.65306816107851,
          -15.964277956757291
        ]
      }
    },
    {
      "type": "Feature",
      "properties": {
        "norad_id": 33684,
        "name": "FENGYUN 1C DEB",
        "group": "fengyun-1c-debris",
        "lat": -35.90461941974446,
        "lon": -142.64050076867818,
        "alt_km": 752.5413780567878,
        "timestamp": "2025-12-14T05:42:18.747287+00:00",
        "meta_object_name": "FENGYUN 1C DEB",
        "meta_object_id": "1999-025DFV",
        "meta_epoch": "2025-12-11T22:54:50.087232",
        "meta_mean_motion": 14.73087708,
        "meta_eccentricity": 0.0287623,
        "meta_inclination": 99.0655,
        "meta_ra_of_asc_node": 41.4468,
        "meta_arg_of_pericenter": 342.991,
        "meta_mean_anomaly": 16.1803,
        "meta_ephemeris_type": 0,
        "meta_classification_type": "U",
        "meta_norad_cat_id": 33684,
        "meta_element_set_no": 999,
        "meta_rev_at_epoch": 92977,
        "meta_bstar": 0.0012551,
        "meta_mean_motion_dot": 0.00015675,
        "meta_mean_motion_ddot": 0,
        "tle_line1": "1 33684U 99025DFV 25345.95474638  .00015675  00000+0  12551-2 0  9993",
        "tle_line2": "2 33684  99.0655  41.4468 0287623 342.9910  16.1803 14.73087708929771"
      },
      "geometry": {
        "type": "Point",
        "coordinates": [
          -142.64050076867818,
          -35.90461941974446
        ]
      }
    },
    {
      "type": "Feature",
      "properties": {
        "norad_id": 33687,
        "name": "FENGYUN 1C DEB",
        "group": "fengyun-1c-debris",
        "lat": -71.43500710256232,
        "lon": 146.1018849778181,
        "alt_km": 498.8973231869095,
        "timestamp": "2025-12-14T05:42:18.747297+00:00",
        "meta_object_name": "FENGYUN 1C DEB",
        "meta_object_id": "1999-025DFY",
        "meta_epoch": "2025-12-10T18:21:11.232576",
        "meta_mean_motion": 15.18394694,
        "meta_eccentricity": 0.01162924,
        "meta_inclination": 98.9979,
        "meta_ra_of_asc_node": 350.1242,
        "meta_arg_of_pericenter": 343.0209,
        "meta_mean_anomaly": 16.7142,
        "meta_ephemeris_type": 0,
        "meta_classification_type": "U",
        "meta_norad_cat_id": 33687,
        "meta_element_set_no": 999,
        "meta_rev_at_epoch": 71478,
        "meta_bstar": 0.0024359908,
        "meta_mean_motion_dot": 0.0006019,
        "meta_mean_motion_ddot": 0,
        "tle_line1": "1 33687U 99025DFY 25344.76471334  .00060190  00000+0  24360-2 0  9997",
        "tle_line2": "2 33687  98.9979 350.1242 0116292 343.0209  16.7142 15.18394694714787"
      },
      "geometry": {
        "type": "Point",
        "coordinates": [
          146.1018849778181,
          -71.43500710256232
        ]
      }
    },
    {
      "type": "Feature",
      "properties": {
        "norad_id": 33688,
        "name": "FENGYUN 1C DEB",
        "group": "fengyun-1c-debris",
        "lat": 8.612841036703527,
        "lon": 88.34338489956326,
        "alt_km": 754.8521077516807,
        "timestamp": "2025-12-14T05:42:18.747308+00:00",
        "meta_object_name": "FENGYUN 1C DEB",
        "meta_object_id": "1999-025DFZ",
        "meta_epoch": "2025-12-13T13:03:13.087008",
        "meta_mean_motion": 14.45620497,
        "meta_eccentricity": 0.00538014,
        "meta_inclination": 99.3497,
        "meta_ra_of_asc_node": 89.0096,
        "meta_arg_of_pericenter": 260.4671,
        "meta_mean_anomaly": 99.0435,
        "meta_ephemeris_type": 0,
        "meta_classification_type": "U",
        "meta_norad_cat_id": 33688,
        "meta_element_set_no": 999,
        "meta_rev_at_epoch": 91493,
        "meta_bstar": 0.003412042,
        "meta_mean_motion_dot": 0.00012244,
        "meta_mean_motion_ddot": 0,
        "tle_line1": "1 33688U 99025DFZ 25347.54390147  .00012244  00000+0  34120-2 0  9991",
        "tle_line2": "2 33688  99.3497  89.0096 0053801 260.4671  99.0435 14.45620497914934"
      },
      "geometry": {
        "type": "Point",
        "coordinates": [
          88.34338489956326,
          8.612841036703527
        ]
      }
    },
    {
      "type": "Feature",
      "properties": {
        "norad_id": 33689,
        "name": "FENGYUN 1C DEB",
        "group": "fengyun-1c-debris",
        "lat": 40.12980437372274,
        "lon": -12.427225503224273,
        "alt_km": 747.6907965408964,
        "timestamp": "2025-12-14T05:42:18.747319+00:00",
        "meta_object_name": "FENGYUN 1C DEB",
        "meta_object_id": "1999-025DGA",
        "meta_epoch": "2025-12-07T05:58:19.079616",
        "meta_mean_motion": 14.45083851,
        "meta_eccentricity": 0.00480135,
        "meta_inclination": 99.5648,
        "meta_ra_of_asc_node": 347.8823,
        "meta_arg_of_pericenter": 167.5369,
        "meta_mean_anomaly": 254.9476,
        "meta_ephemeris_type": 0,
        "meta_classification_type": "U",
        "meta_norad_cat_id": 33689,
        "meta_element_set_no": 999,
        "meta_rev_at_epoch": 69451,
        "meta_bstar": 0.0017194976,
        "meta_mean_motion_dot": 6.046e-05,
        "meta_mean_motion_ddot": 0,
        "tle_line1": "1 33689U 99025DGA 25341.24883194  .00006046  00000+0  17195-2 0  9998",
        "tle_line2": "2 33689  99.5648 347.8823 0048013 167.5369 254.9476 14.45083851694511"
      },
      "geometry": {
        "type": "Point",
        "coordinates": [
          -12.427225503224273,
          40.12980437372274
        ]
      }
    },
    {
      "type": "Feature",
      "properties": {
        "norad_id": 33690,
        "name": "FENGYUN 1C DEB",
        "group": "fengyun-1c-debris",
        "lat": 71.39825525679947,
        "lon": 59.876679836150004,
        "alt_km": 694.7864742313432,
        "timestamp": "2025-12-14T05:42:18.747329+00:00",
        "meta_object_name": "FENGYUN 1C DEB",
        "meta_object_id": "1999-025DGB",
        "meta_epoch": "2025-12-12T05:23:26.598624",
        "meta_mean_motion": 14.51441584,
        "meta_eccentricity": 0.00304597,
        "meta_inclination": 98.6124,
        "meta_ra_of_asc_node": 84.5776,
        "meta_arg_of_pericenter": 51.4058,
        "meta_mean_anomaly": 308.9857,
        "meta_ephemeris_type": 0,
        "meta_classification_type": "U",
        "meta_norad_cat_id": 33690,
        "meta_element_set_no": 999,
        "meta_rev_at_epoch": 93212,
        "meta_bstar": 0.0033928677,
        "meta_mean_motion_dot": 0.00013604,
        "meta_mean_motion_ddot": 0,
        "tle_line1": "1 33690U 99025DGB 25346.22461341  .00013604  00000+0  33929-2 0  9990",
        "tle_line2": "2 33690  98.6124  84.5776 0030459  51.4058 308.9857 14.51441584932128"
      },
      "geometry": {
        "type": "Point",
        "coordinates": [
          59.876679836150004,
          71.39825525679947
        ]
      }
    }
  ]
}